NORAD_CAT_ID,OBJECT_NAME,OBJECT_TYPE,EPOCH,MEAN_MOTION,ECCENTRICITY,INCLINATION,RA_OF_ASC_NODE,ARG_OF_PERICENTER,MEAN_ANOMALY,BSTAR,MEAN_MOTION_DOT,MEAN_MOTION_DDOT,TLE_LINE0,TLE_LINE1,TLE_LINE2,SEMIMAJOR_AXIS,PERIOD,APOGEE,PERIGEE,DECAYED
51124.0,STARLINK-3389,PAYLOAD,2024-07-25 01:04:07,15.08850652,0.0001086,53.2142,79.6055,97.3678,262.7438,0.0003873,5.883e-05,0.0,0 STARLINK-3389,1 51124U 22005W   24207.04452846  .00005883  00000-0  38730-3 0  9998,2 51124  53.2142  79.6055 0001086  97.3678 262.7438 15.08850652140387,6917.848,95.437,540.464,538.962,0.0
51124.0,STARLINK-3389,PAYLOAD,2024-07-25 15:22:35,15.08850098,0.0001107,53.2122,76.9301,96.9719,263.1399,0.00052183,8.029e-05,0.0,0 STARLINK-3389,1 51124U 22005W   24207.64069009  .00008029  00000-0  52183-3 0  9992,2 51124  53.2122  76.9301 0001107  96.9719 263.1399 15.08850098140479,6917.85,95.437,540.48,538.949,0.0
51124.0,STARLINK-3389,PAYLOAD,2024-07-25 21:44:08,15.08841256,0.0001329,53.2144,75.738,128.3069,231.8043,0.00047196,7.232e-05,0.0,0 STARLINK-3389,1 51124U 22005W   24207.90565139  .00007232  00000-0  47196-3 0  9999,2 51124  53.2144  75.7380 0001329 128.3069 231.8043 15.08841256139406,6917.877,95.437,540.661,538.822,0.0
51124.0,STARLINK-3389,PAYLOAD,2024-07-26 00:54:54,15.08843565,9.49e-05,53.2137,75.1462,109.2753,250.8341,0.00018429,2.647e-05,0.0,0 STARLINK-3389,1 51124U 22005W   24208.03812980  .00002647  00000-0  18429-3 0  9995,2 51124  53.2137  75.1462 0000949 109.2753 250.8341 15.08843565140531,6917.869,95.437,540.391,539.078,0.0
51124.0,STARLINK-3389,PAYLOAD,2024-07-26 08:51:49,15.08853383,0.0001232,53.2144,73.6611,84.2263,275.887,0.00032177,4.839e-05,0.0,0 STARLINK-3389,1 51124U 22005W   24208.36932636  .00004839  00000-0  32177-3 0  9993,2 51124  53.2144  73.6611 0001232  84.2263 275.8870 15.08853383139476,6917.839,95.437,540.557,538.852,0.0
51124.0,STARLINK-3389,PAYLOAD,2024-07-26 21:34:54,15.08849881,0.0001295,53.2165,71.281,93.7712,266.3428,0.00019651,2.842e-05,0.0,0 STARLINK-3389,1 51124U 22005W   24208.89924529  .00002842  00000-0  19651-3 0  9997,2 51124  53.2165  71.2810 0001295  93.7712 266.3428 15.08849881139558,6917.85,95.437,540.611,538.819,0.0
51124.0,STARLINK-3389,PAYLOAD,2024-07-26 23:10:17,15.08848516,0.0001268,53.2165,70.9836,93.5228,266.5909,0.00017646,2.522e-05,0.0,0 STARLINK-3389,1 51124U 22005W   24208.96548550  .00002522  00000-0  17646-3 0  9998,2 51124  53.2165  70.9836 0001268  93.5228 266.5909 15.08848516139563,6917.854,95.437,540.597,538.842,0.0
51124.0,STARLINK-3389,PAYLOAD,2024-07-28 13:19:33,15.08834032,0.0001266,53.2136,63.8485,91.1737,268.94,-4.6248e-05,-1.024e-05,0.0,0 STARLINK-3389,1 51124U 22005W   24210.55525431 -.00001024  00000-0 -46248-4 0  9998,2 51124  53.2136  63.8485 0001266  91.1737 268.9400 15.08834032140910,6917.899,95.438,540.639,538.888,0.0
51124.0,STARLINK-3389,PAYLOAD,2024-07-28 21:16:29,15.08831864,0.0001411,53.2179,62.3608,94.3687,265.7466,9.8364e-05,1.278e-05,0.0,0 STARLINK-3389,1 51124U 22005W   24210.88645774  .00001278  00000-0  98364-4 0  9992,2 51124  53.2179  62.3608 0001411  94.3687 265.7466 15.08831864139857,6917.905,95.438,540.746,538.794,0.0
51124.0,STARLINK-3389,PAYLOAD,2024-07-29 13:10:20,15.08838373,9.45e-05,53.2174,59.3928,208.1184,151.9757,0.00016443,2.33e-05,0.0,0 STARLINK-3389,1 51124U 22005W   24211.54884674  .00002330  00000-0  16443-3 0  9997,2 51124  53.2174  59.3928 0000945 208.1184 151.9757 15.08838373141068,6917.885,95.438,540.404,539.097,0.0
51124.0,STARLINK-3389,PAYLOAD,2024-07-29 21:07:17,15.08831789,4.73e-05,53.2184,57.9029,136.4688,223.6342,6.9626e-05,8.21e-06,0.0,0 STARLINK-3389,1 51124U 22005W   24211.88005815  .00000821  00000-0  69626-4 0  9991,2 51124  53.2184  57.9029 0000473 136.4688 223.6342 15.08831789141110,6917.905,95.438,540.098,539.443,0.0
51124.0,STARLINK-3389,PAYLOAD,2024-07-30 06:39:35,15.08848271,0.0001406,53.2177,56.1164,85.8642,274.2511,0.00018695,2.689e-05,0.0,0 STARLINK-3389,1 51124U 22005W   24212.27748928  .00002689  00000-0  18695-3 0  9997,2 51124  53.2177  56.1164 0001406  85.8642 274.2511 15.08848271141177,6917.855,95.437,540.693,538.747,0.0
51124.0,STARLINK-3389,PAYLOAD,2024-07-31 12:51:55,15.08839295,0.0002009,53.2177,50.4675,86.9593,273.1629,9.7863e-05,1.27e-05,0.0,0 STARLINK-3389,1 51124U 22005W   24213.53605939  .00001270  00000-0  97863-4 0  9991,2 51124  53.2177  50.4675 0002009  86.9593 273.1629 15.08839295141363,6917.883,95.438,541.137,538.358,0.0
51124.0,STARLINK-3389,PAYLOAD,2024-07-31 20:48:51,15.08834795,0.0001259,53.2169,48.9797,93.3927,266.721,2.9516e-05,1.82e-06,0.0,0 STARLINK-3389,1 51124U 22005W   24213.86726153  .00000182  00000-0  29516-4 0  9990,2 51124  53.2169  48.9797 0001259  93.3927 266.7210 15.08834795140307,6917.896,95.438,540.632,538.89,0.0
51124.0,STARLINK-3389,PAYLOAD,2024-08-01 12:42:40,15.08888098,6.57e-05,53.2169,46.0049,73.251,286.8554,-0.00048339,-7.983e-05,0.0,0 STARLINK-3389,1 51124U 22005W   24214.52963696 -.00007983  00000-0 -48339-3 0  9990,2 51124  53.2169  46.0049 0000657  73.2510 286.8554 15.08888098141515,6917.733,95.435,540.053,539.144,0.0
51124.0,STARLINK-3389,PAYLOAD,2024-08-01 22:14:59,15.08848821,0.0001295,53.217,44.2207,95.5843,264.5297,0.00029759,4.453e-05,0.0,0 STARLINK-3389,1 51124U 22005W   24214.92708291  .00004453  00000-0  29759-3 0  9994,2 51124  53.2170  44.2207 0001295  95.5843 264.5297 15.08848821140468,6917.853,95.437,540.614,538.823,0.0
51124.0,STARLINK-3389,PAYLOAD,2024-08-02 12:33:29,15.08847237,0.0002995,53.2148,41.545,88.5936,271.5399,0.00030522,4.574e-05,0.0,0 STARLINK-3389,1 51124U 22005W   24215.52325756  .00004574  00000-0  30522-3 0  9996,2 51124  53.2148  41.5450 0002995  88.5936 271.5399 15.08847237141660,6917.858,95.437,541.795,537.651,0.0
51124.0,STARLINK-3389,PAYLOAD,2024-08-02 18:55:02,15.08826448,0.0001565,53.2162,40.355,98.0293,262.0877,7.8935e-06,-1.62e-06,0.0,0 STARLINK-3389,1 51124U 22005W   24215.78822673 -.00000162  00000-0  78935-5 0  9996,2 51124  53.2162  40.3550 0001565  98.0293 262.0877 15.08826448141700,6917.922,95.438,540.869,538.704,0.0
51124.0,STARLINK-3389,PAYLOAD,2024-08-03 12:24:16,15.08851566,0.0001573,53.2171,37.0841,95.9922,264.125,0.00031107,4.668e-05,0.0,0 STARLINK-3389,1 51124U 22005W   24216.51685588  .00004668  00000-0  31107-3 0  9992,2 51124  53.2171  37.0841 0001573  95.9922 264.1250 15.08851566141819,6917.845,95.437,540.798,538.622,0.0
51124.0,STARLINK-3389,PAYLOAD,2024-08-03 18:45:49,15.0887083,0.0001451,53.2165,35.8948,89.599,270.5169,0.0017497,0.00027692,0.0,0 STARLINK-3389,1 51124U 22005W   24216.78181716  .00027692  00000-0  17497-2 0  9992,2 51124  53.2165  35.8948 0001451  89.5990 270.5169 15.08870830140741,6917.786,95.436,540.655,538.647,0.0
51124.0,STARLINK-3389,PAYLOAD,2024-08-04 12:15:03,15.08875767,0.0001475,53.2168,32.6233,78.2546,281.8612,0.0020575,0.00032641,0.0,0 STARLINK-3389,1 51124U 22005W   24217.51045258  .00032641  00000-0  20575-2 0  9995,2 51124  53.2168  32.6233 0001475  78.2546 281.8612 15.08875767141961,6917.771,95.435,540.656,538.616,0.0
51124.0,STARLINK-3389,PAYLOAD,2024-08-04 18:36:35,15.08831735,0.0001338,53.2171,31.4343,108.9753,251.1384,0.001589,0.00025086,0.0,0 STARLINK-3389,1 51124U 22005W   24217.77541346  .00025086  00000-0  15890-2 0  9991,2 51124  53.2171  31.4343 0001338 108.9753 251.1384 15.08831735142002,6917.906,95.438,540.696,538.845,0.0
51124.0,STARLINK-3389,PAYLOAD,2024-08-05 18:27:23,15.08819832,0.0001337,53.2164,26.969,63.3874,296.7255,0.00020611,2.992e-05,0.0,0 STARLINK-3389,1 51124U 22005W   24218.76902263  .00002992  00000-0  20611-3 0  9999,2 51124  53.2164  26.9690 0001337  63.3874 296.7255 15.08819832142157,6917.942,95.439,540.732,538.882,0.0
51124.0,STARLINK-3389,PAYLOAD,2024-08-06 11:56:38,15.08830679,0.0001365,53.2161,23.6972,55.797,304.3151,0.00071856,0.00011163,0.0,0 STARLINK-3389,1 51124U 22005W   24219.49767076  .00011163  00000-0  71856-3 0  9998,2 51124  53.2161  23.6972 0001365  55.7970 304.3151 15.08830679141156,6917.909,95.438,540.718,538.83,0.0
51124.0,STARLINK-3389,PAYLOAD,2024-08-06 19:53:33,15.08861408,0.0001326,53.2166,22.2133,72.5677,287.546,0.0014849,0.00023437,0.0,0 STARLINK-3389,1 51124U 22005W   24219.82886563  .00023437  00000-0  14849-2 0  9993,2 51124  53.2166  22.2133 0001326  72.5677 287.5460 15.08861408142311,6917.815,95.436,540.597,538.763,0.0
51124.0,STARLINK-3389,PAYLOAD,2024-08-07 18:08:56,15.08863151,0.0002791,53.2169,18.0519,175.0693,185.0327,0.001084,0.00017017,0.0,0 STARLINK-3389,1 51124U 22005W   24220.75621197  .00017017  00000-0  10840-2 0  9991,2 51124  53.2169  18.0519 0002791 175.0693 185.0327 15.08863151142455,6917.81,95.436,541.605,537.744,0.0
51124.0,STARLINK-3389,PAYLOAD,2024-08-08 17:59:44,15.08848545,0.0001306,53.2166,13.5933,96.1326,263.9815,0.00059758,9.238e-05,0.0,0 STARLINK-3389,1 51124U 22005W   24221.74981968  .00009238  00000-0  59758-3 0  9994,2 51124  53.2166  13.5933 0001306  96.1326 263.9815 15.08848545142604,6917.854,95.437,540.623,538.816,0.0
51124.0,STARLINK-3389,PAYLOAD,2024-08-09 09:53:36,15.08829938,0.0001812,53.2163,10.6209,86.0015,274.1184,-0.00011038,-2.044e-05,0.0,0 STARLINK-3389,1 51124U 22005W   24222.41222584 -.00002044  00000-0 -11038-3 0  9990,2 51124  53.2163  10.6209 0001812  86.0015 274.1184 15.08829938142709,6917.911,95.438,541.03,538.523,0.0
51124.0,STARLINK-3389,PAYLOAD,2024-08-09 16:15:08,15.08832941,0.0001447,53.2157,9.4308,96.6971,263.4186,4.4324e-05,4.17e-06,0.0,0 STARLINK-3389,1 51124U 22005W   24222.67718648  .00000417  00000-0  44324-4 0  9994,2 51124  53.2157   9.4308 0001447  96.6971 263.4186 15.08832941141632,6917.902,95.438,540.768,538.766,0.0
51124.0,STARLINK-3389,PAYLOAD,2024-08-10 12:55:09,15.08846584,0.000166,53.2178,5.5654,89.7503,270.3679,0.00052836,8.132e-05,0.0,0 STARLINK-3389,1 51124U 22005W   24223.53830765  .00008132  00000-0  52836-3 0  9993,2 51124  53.2178   5.5654 0001660  89.7503 270.3679 15.08846584142876,6917.86,95.437,540.874,538.577,0.0
